STARLINK-31381          
1 59469U 24068Q   26068.24556679  .00000158  00000+0  15254-4 0  9993
2 59469  43.0026  33.6651 0001347 260.9479  99.1220 15.27584318108495
STARLINK-36554          
1 67502U 26012K   26067.71268370  .00032833  00000+0  11969-2 0  9992
2 67502  42.9934 319.8184 0000695 339.2059  20.8765 15.27591469  7619
